OBJECT_NAME,OBJECT_ID,EPOCH,MEAN_MOTION,ECCENTRICITY,INCLINATION,RA_OF_ASC_NODE,ARG_OF_PERICENTER,MEAN_ANOMALY,EPHEMERIS_TYPE,CLASSIFICATION_TYPE,NORAD_CAT_ID,ELEMENT_SET_NO,REV_AT_EPOCH,BSTAR,MEAN_MOTION_DOT,MEAN_MOTION_DDOT
TJS-25,2026-129A,2026-07-10T21:01:14.169216,1.00273978,.0002673,5.9584,330.3148,284.5570,109.4087,0,U,69474,999,30,0,-.357E-5,0
STARLINK-37816,2026-131A,2026-07-10T20:00:01.999008,15.56049139,.0001557,97.2841,213.3989,98.2248,244.4181,0,U,69478,999,580,-.38484E-1,-.2349571E-1,0
STARLINK-37878,2026-131B,2026-07-10T20:00:01.999008,15.64455954,.0001548,97.2842,213.4218,75.7272,332.0041,0,U,69479,999,466,-.30869E-1,-.2570578E-1,0
STARLINK-37817,2026-131C,2026-07-10T20:00:01.999008,15.63900118,.0001414,97.2846,213.4461,61.3399,33.0026,0,U,69480,999,580,-.30425E-1,-.2490098E-1,0
STARLINK-37727,2026-131D,2026-07-10T20:00:01.999008,15.55413986,.0001645,97.2839,213.4015,98.6627,250.6134,0,U,69481,999,580,-.4006E-1,-.2383925E-1,0
STARLINK-37814,2026-131E,2026-07-10T20:00:01.999008,15.63360603,.0001618,97.2845,213.4442,73.7327,17.2185,0,U,69482,999,580,-.30967E-1,-.248231E-1,0
STARLINK-37869,2026-131F,2026-07-10T20:00:01.999008,15.61236018,.0001368,97.2844,213.4288,80.1498,335.1921,0,U,69483,999,580,-.18168E-1,-.138452E-1,0
STARLINK-37873,2026-131G,2026-07-10T20:00:01.999008,15.60849124,.0001634,97.2845,213.4362,68.7868,4.5847,0,U,69484,999,580,-.34421E-1,-.2498791E-1,0
STARLINK-37892,2026-131H,2026-07-10T20:00:01.999008,15.61974397,.0001672,97.2847,213.4491,59.2856,46.5831,0,U,69485,999,580,-.32507E-1,-.2469664E-1,0
STARLINK-37893,2026-131J,2026-07-10T20:00:01.999008,15.62717181,.0001365,97.2843,213.4471,66.7839,29.0254,0,U,69486,999,588,-.91566E-2,-.748577E-2,0
STARLINK-37842,2026-131K,2026-07-10T20:00:01.999008,15.62557868,.0001386,97.2847,213.4320,69.9712,350.9511,0,U,69487,999,580,-.32036E-1,-.2487159E-1,0
STARLINK-37449,2026-131L,2026-07-10T20:00:01.999008,15.62153175,.0001725,97.2844,213.4569,71.8274,47.9602,0,U,69488,999,589,-.32877E-1,-.2509378E-1,0
STARLINK-37831,2026-131M,2026-07-10T20:00:01.999008,15.56533219,.0001673,97.2847,213.4142,101.0590,274.9063,0,U,69489,999,444,-.37349E-1,-.2325274E-1,0
STARLINK-37879,2026-131N,2026-07-10T20:00:01.999008,15.59768207,.0001642,97.2846,213.4393,71.1974,7.9327,0,U,69490,999,580,-.35194E-1,-.2456929E-1,0
STARLINK-37856,2026-131P,2026-07-10T20:00:01.999008,15.60136989,.0001313,97.2841,213.4258,56.8980,358.6011,0,U,69491,999,586,-.34857E-1,-.2466338E-1,0
STARLINK-37568,2026-131Q,2026-07-10T20:00:01.999008,15.57000799,.0001346,97.2846,213.4282,50.4310,9.1885,0,U,69492,999,589,-.38523E-1,-.2425663E-1,0
STARLINK-37855,2026-131R,2026-07-10T20:00:01.999008,15.68573708,.0002073,97.2846,213.4717,85.0152,79.3148,0,U,69493,999,586,-.26079E-1,-.2567773E-1,0
STARLINK-37854,2026-131S,2026-07-10T20:00:01.999008,15.63622981,.0001735,97.2849,213.4526,78.4402,30.9086,0,U,69494,999,586,-.28708E-1,-.2344309E-1,0
STARLINK-37789,2026-131T,2026-07-10T20:00:01.999008,15.59238725,.0002233,97.2851,213.4511,82.6334,21.1533,0,U,69495,999,588,-.38738E-1,-.262377E-1,0
STARLINK-37839,2026-131U,2026-07-10T20:00:01.999008,15.60585183,.000157,97.2848,213.4427,73.8287,13.6200,0,U,69496,999,586,-.33653E-1,-.2428456E-1,0
STARLINK-37798,2026-131V,2026-07-10T20:00:01.999008,15.59190783,.0001647,97.2847,213.4527,70.7998,40.0064,0,U,69497,999,586,-.36051E-1,-.2461121E-1,0
STARLINK-37853,2026-131W,2026-07-10T20:00:01.999008,15.75225692,.0001131,97.2847,213.5093,98.7814,147.7681,0,U,69498,999,586,-.72245E-3,-.106715E-2,0
STARLINK-37849,2026-131X,2026-07-10T20:00:01.999008,15.55584787,.0001269,97.2854,213.4391,70.0111,6.7078,0,U,69499,999,588,-.40317E-1,-.2410192E-1,0
STARLINK-37835,2026-131Y,2026-07-10T20:00:01.999008,15.56632269,.0001598,97.2845,213.4356,55.5318,23.3664,0,U,69500,999,477,-.39763E-1,-.2463902E-1,0
STARLINK-37843,2026-131Z,2026-07-10T20:00:01.999008,15.55289558,.0001523,97.2845,213.4337,78.2007,344.0552,0,U,69501,999,586,-.39648E-1,-.235285E-1,0
STARS-X,2026-132A,2026-07-10T02:48:32.611968,14.99099887,.0014079,97.6883,254.4879,183.0330,177.0810,0,U,69502,999,421,.10714634E-3,.1244E-4,0
PETREL,2026-132B,2026-07-10T13:59:01.202784,14.99179199,.0014012,97.6912,254.9621,183.1774,176.9363,0,U,69503,999,428,.84508E-4,.971E-5,0
BRO-22,2026-132C,2026-07-09T13:40:53.743872,14.99796310,.00159513,97.6833,253.9635,201.2436,158.8127,0,U,69504,999,413,.66480091E-4,.764E-5,0
HORN-L,2026-132D,2026-07-10T03:14:44.084544,15.11027619,.0025715,97.6864,254.7457,225.9343,133.9769,0,U,69505,999,423,.17837278E-3,.2936E-4,0
VERTECS,2026-132E,2026-07-10T03:34:38.902368,15.00980943,.00152043,97.6831,254.5950,223.5994,136.4029,0,U,69506,999,421,.10513758E-3,.1284E-4,0
