TJS-25                  
1 69474U 26129A   26191.87585844 -.00000357  00000+0  00000+0 0  9992
2 69474   5.9584 330.3148 0002673 284.5570 109.4087  1.00273978   303
STARLINK-37816          
1 69478U 26131A   26191.83335647 -.02349571  00000+0 -38484-1 0  9995
2 69478  97.2841 213.3989 0001557  98.2248 244.4181 15.56049139  5803
STARLINK-37878          
1 69479U 26131B   26191.83335647 -.02570578  00000+0 -30869-1 0  9998
2 69479  97.2842 213.4218 0001548  75.7272 332.0041 15.64455954  4665
STARLINK-37817          
1 69480U 26131C   26191.83335647 -.02490098  00000+0 -30425-1 0  9996
2 69480  97.2846 213.4461 0001414  61.3399  33.0026 15.63900118  5808
STARLINK-37727          
1 69481U 26131D   26191.83335647 -.02383925  00000+0 -40060-1 0  9993
2 69481  97.2839 213.4015 0001645  98.6627 250.6134 15.55413986  5809
STARLINK-37814          
1 69482U 26131E   26191.83335647 -.02482310  00000+0 -30967-1 0  9997
2 69482  97.2845 213.4442 0001618  73.7327  17.2185 15.63360603  5801
STARLINK-37869          
1 69483U 26131F   26191.83335647 -.01384520  00000+0 -18168-1 0  9990
2 69483  97.2844 213.4288 0001368  80.1498 335.1921 15.61236018  5802
STARLINK-37873          
1 69484U 26131G   26191.83335647 -.02498791  00000+0 -34421-1 0  9998
2 69484  97.2845 213.4362 0001634  68.7868   4.5847 15.60849124  5807
STARLINK-37892          
1 69485U 26131H   26191.83335647 -.02469664  00000+0 -32507-1 0  9999
2 69485  97.2847 213.4491 0001672  59.2856  46.5831 15.61974397  5808
STARLINK-37893          
1 69486U 26131J   26191.83335647 -.00748577  00000+0 -91566-2 0  9992
2 69486  97.2843 213.4471 0001365  66.7839  29.0254 15.62717181  5886
STARLINK-37842          
1 69487U 26131K   26191.83335647 -.02487159  00000+0 -32036-1 0  9997
2 69487  97.2847 213.4320 0001386  69.9712 350.9511 15.62557868  5800
STARLINK-37449          
1 69488U 26131L   26191.83335647 -.02509378  00000+0 -32877-1 0  9999
2 69488  97.2844 213.4569 0001725  71.8274  47.9602 15.62153175  5891
STARLINK-37831          
1 69489U 26131M   26191.83335647 -.02325274  00000+0 -37349-1 0  9990
2 69489  97.2847 213.4142 0001673 101.0590 274.9063 15.56533219  4448
STARLINK-37879          
1 69490U 26131N   26191.83335647 -.02456929  00000+0 -35194-1 0  9990
2 69490  97.2846 213.4393 0001642  71.1974   7.9327 15.59768207  5804
STARLINK-37856          
1 69491U 26131P   26191.83335647 -.02466338  00000+0 -34857-1 0  9991
2 69491  97.2841 213.4258 0001313  56.8980 358.6011 15.60136989  5862
STARLINK-37568          
1 69492U 26131Q   26191.83335647 -.02425663  00000+0 -38523-1 0  9992
2 69492  97.2846 213.4282 0001346  50.4310   9.1885 15.57000799  5893
STARLINK-37855          
1 69493U 26131R   26191.83335647 -.02567773  00000+0 -26079-1 0  9995
2 69493  97.2846 213.4717 0002073  85.0152  79.3148 15.68573708  5868
STARLINK-37854          
1 69494U 26131S   26191.83335647 -.02344309  00000+0 -28708-1 0  9995
2 69494  97.2849 213.4526 0001735  78.4402  30.9086 15.63622981  5865
STARLINK-37789          
1 69495U 26131T   26191.83335647 -.02623770  00000+0 -38738-1 0  9992
2 69495  97.2851 213.4511 0002233  82.6334  21.1533 15.59238725  5883
STARLINK-37839          
1 69496U 26131U   26191.83335647 -.02428456  00000+0 -33653-1 0  9998
2 69496  97.2848 213.4427 0001570  73.8287  13.6200 15.60585183  5868
STARLINK-37798          
1 69497U 26131V   26191.83335647 -.02461121  00000+0 -36051-1 0  9990
2 69497  97.2847 213.4527 0001647  70.7998  40.0064 15.59190783  5867
STARLINK-37853          
1 69498U 26131W   26191.83335647 -.00106715  00000+0 -72245-3 0  9991
2 69498  97.2847 213.5093 0001131  98.7814 147.7681 15.75225692  5868
STARLINK-37849          
1 69499U 26131X   26191.83335647 -.02410192  00000+0 -40317-1 0  9994
2 69499  97.2854 213.4391 0001269  70.0111   6.7078 15.55584787  5889
STARLINK-37835          
1 69500U 26131Y   26191.83335647 -.02463902  00000+0 -39763-1 0  9997
2 69500  97.2845 213.4356 0001598  55.5318  23.3664 15.56632269  4778
STARLINK-37843          
1 69501U 26131Z   26191.83335647 -.02352850  00000+0 -39648-1 0  9999
2 69501  97.2845 213.4337 0001523  78.2007 344.0552 15.55289558  5861
STARS-X                 
1 69502U 26132A   26191.11704412  .00001244  00000+0  10715-3 0  9992
2 69502  97.6883 254.4879 0014079 183.0330 177.0810 14.99099887  4218
PETREL                  
1 69503U 26132B   26191.58265281  .00000971  00000+0  84508-4 0  9998
2 69503  97.6912 254.9621 0014012 183.1774 176.9363 14.99179199  4285
BRO-22                  
1 69504U 26132C   26190.57006648  .00000764  00000+0  66480-4 0  9996
2 69504  97.6833 253.9635 0015951 201.2436 158.8127 14.99796310  4133
HORN-L                  
1 69505U 26132D   26191.13523246  .00002936  00000+0  17837-3 0  9992
2 69505  97.6864 254.7457 0025715 225.9343 133.9769 15.11027619  4239
VERTECS                 
1 69506U 26132E   26191.14906137  .00001284  00000+0  10514-3 0  9998
2 69506  97.6831 254.5950 0015204 223.5994 136.4029 15.00980943  4219
